HERMES-3                
1 63835U 25052BR  26068.93751242  .00020316  00000+0  69958-3 0  9995
2 63835  97.3987 324.6131 0007993 112.9583 247.2502 15.30039785 54863
STARLINK-34607          
1 64742U 25144U   26068.52307576  .00007577  00000+0  26794-3 0  9992
2 64742  53.1586 182.0056 0001441 112.0264 248.0890 15.30171229 39667
